STARLINK-2319           
1 47790U 21018D   26068.63682306  .00000665  00000+0  34593-4 0  9999
2 47790  53.1599 216.9503 0001262 122.8406 237.2717 15.30195970277095
LIZZIESAT-2 (LS-2)      
1 62383U 24247G   26068.49140277  .00009388  00000+0  34517-3 0  9997
2 62383  44.9909 117.0823 0004092 327.5136  32.5495 15.28222796 67716
